NORAD_CAT_ID,OBJECT_NAME,OBJECT_TYPE,EPOCH,MEAN_MOTION,ECCENTRICITY,INCLINATION,RA_OF_ASC_NODE,ARG_OF_PERICENTER,MEAN_ANOMALY,BSTAR,MEAN_MOTION_DOT,MEAN_MOTION_DDOT,TLE_LINE0,TLE_LINE1,TLE_LINE2,SEMIMAJOR_AXIS,PERIOD,APOGEE,PERIGEE,DECAYED
53002.0,STARLINK-4121,PAYLOAD,2023-10-10 11:51:24,15.08839266,0.0001356,53.2157,89.9599,90.0717,270.043,4.0513e-05,3.57e-06,0.0,0 STARLINK-4121,1 53002U 22076S   23283.49403220  .00000357  00000-0  40513-4 0  9991,2 53002  53.2157  89.9599 0001356  90.0717 270.0430 15.08839266 69811,6917.883,95.438,540.686,538.81,0.0
53002.0,STARLINK-4121,PAYLOAD,2023-10-10 21:23:42,15.08847473,0.0001323,53.2156,88.1763,88.4713,271.643,0.00011379,1.524e-05,0.0,0 STARLINK-4121,1 53002U 22076S   23283.89146714  .00001524  00000-0  11379-3 0  9991,2 53002  53.2156  88.1763 0001323  88.4713 271.6430 15.08847473 69877,6917.858,95.437,540.638,538.807,0.0
53002.0,STARLINK-4121,PAYLOAD,2023-10-11 03:45:15,15.08838677,0.0001229,53.2152,86.9836,69.9225,290.1899,1.2688e-06,-2.68e-06,0.0,0 STARLINK-4121,1 53002U 22076S   23284.15643094 -.00000268  00000-0  12688-5 0  9995,2 53002  53.2152  86.9836 0001229  69.9225 290.1899 15.08838677 70386,6917.884,95.438,540.6,538.899,0.0
53002.0,STARLINK-4121,PAYLOAD,2023-10-11 11:42:11,15.08831252,0.0001693,53.2163,85.4994,88.6381,271.4805,-2.4745e-05,-6.82e-06,0.0,0 STARLINK-4121,1 53002U 22076S   23284.48763873 -.00000682  00000-0 -24745-4 0  9996,2 53002  53.2163  85.4994 0001693  88.6381 271.4805 15.08831252 69966,6917.907,95.438,540.943,538.601,0.0
53002.0,STARLINK-4121,PAYLOAD,2023-10-12 14:43:44,15.0885127,0.0001704,53.2169,80.4457,93.2859,266.8328,2.1897e-05,6.1e-07,0.0,0 STARLINK-4121,1 53002U 22076S   23285.61371096  .00000061  00000-0  21897-4 0  9998,2 53002  53.2169  80.4457 0001704  93.2859 266.8328 15.08851270 70137,6917.846,95.437,540.89,538.532,0.0
53002.0,STARLINK-4121,PAYLOAD,2023-10-12 17:54:31,15.088489,0.0001419,53.2171,79.8514,87.8898,272.2257,0.00031389,4.712e-05,0.0,0 STARLINK-4121,1 53002U 22076S   23285.74619355  .00004712  00000-0  31389-3 0  9998,2 53002  53.2171  79.8514 0001419  87.8898 272.2257 15.08848900 70623,6917.853,95.437,540.7,538.737,0.0
53002.0,STARLINK-4121,PAYLOAD,2023-10-13 09:48:22,15.08839495,0.0001485,53.217,76.8774,87.9126,272.2036,0.00013925,1.929e-05,0.0,0 STARLINK-4121,1 53002U 22076S   23286.40859717  .00001929  00000-0  13925-3 0  9993,2 53002  53.2170  76.8774 0001485  87.9126 272.2036 15.08839495 70720,6917.882,95.438,540.774,538.72,0.0
53002.0,STARLINK-4121,PAYLOAD,2023-10-13 14:34:32,15.08839109,0.0001342,53.2164,75.9849,86.1308,273.9837,0.00016843,2.394e-05,0.0,0 STARLINK-4121,1 53002U 22076S   23286.60731823  .00002394  00000-0  16843-3 0  9991,2 53002  53.2164  75.9849 0001342  86.1308 273.9837 15.08839109 70281,6917.883,95.438,540.676,538.82,0.0
53002.0,STARLINK-4121,PAYLOAD,2023-10-13 19:20:41,15.08851798,0.0001356,53.2164,75.0923,88.0466,272.0682,0.0002449,3.613e-05,0.0,0 STARLINK-4121,1 53002U 22076S   23286.80603092  .00003613  00000-0  24490-3 0  9991,2 53002  53.2164  75.0923 0001356  88.0466 272.0682 15.08851798 70787,6917.844,95.437,540.647,538.771,0.0
53002.0,STARLINK-4121,PAYLOAD,2023-10-14 09:39:09,15.08842566,0.0001415,53.2166,72.4154,87.7267,272.3887,6.6561e-05,7.72e-06,0.0,0 STARLINK-4121,1 53002U 22076S   23287.40219406  .00000772  00000-0  66561-4 0  9999,2 53002  53.2166  72.4154 0001415  87.7267 272.3887 15.08842566 70870,6917.873,95.437,540.716,538.759,0.0
53002.0,STARLINK-4121,PAYLOAD,2023-10-14 14:25:18,15.08842246,0.0001207,53.2173,71.5222,90.8355,269.2776,0.00013986,1.939e-05,0.0,0 STARLINK-4121,1 53002U 22076S   23287.60091284  .00001939  00000-0  13986-3 0  9991,2 53002  53.2173  71.5222 0001207  90.8355 269.2776 15.08842246 70435,6917.874,95.437,540.574,538.904,0.0
53002.0,STARLINK-4121,PAYLOAD,2023-10-14 16:00:41,15.08851745,0.0001477,53.2164,71.2261,86.9822,273.1339,0.00012107,1.64e-05,0.0,0 STARLINK-4121,1 53002U 22076S   23287.66714859  .00001640  00000-0  12107-3 0  9990,2 53002  53.2164  71.2261 0001477  86.9822 273.1339 15.08851745 70915,6917.844,95.437,540.731,538.688,0.0
53002.0,STARLINK-4121,PAYLOAD,2023-10-15 12:40:43,15.08834637,0.0001548,53.2171,67.3621,86.6518,273.4651,3.148e-05,2.13e-06,0.0,0 STARLINK-4121,1 53002U 22076S   23288.52827866  .00000213  00000-0  31480-4 0  9990,2 53002  53.2171  67.3621 0001548  86.6518 273.4651 15.08834637 71043,6917.897,95.438,540.833,538.691,0.0
53002.0,STARLINK-4121,PAYLOAD,2023-10-15 14:16:06,15.08834133,0.0001606,53.217,67.0646,93.0463,267.0713,1.8616e-05,8e-08,0.0,0 STARLINK-4121,1 53002U 22076S   23288.59451922  .00000008  00000-0  18616-4 0  9991,2 53002  53.2170  67.0646 0001606  93.0463 267.0713 15.08834133 70589,6917.898,95.438,540.874,538.652,0.0
53002.0,STARLINK-4121,PAYLOAD,2023-10-15 19:02:15,15.08836791,0.0001671,53.2176,66.1701,97.0711,263.0471,-5.6045e-05,-1.18e-05,0.0,0 STARLINK-4121,1 53002U 22076S   23288.79323747 -.00001180  00000-0 -56045-4 0  9998,2 53002  53.2176  66.1701 0001671  97.0711 263.0471 15.08836791 70612,6917.89,95.438,540.911,538.599,0.0
53002.0,STARLINK-4121,PAYLOAD,2023-10-16 14:06:53,15.08845348,0.0001656,53.2178,62.6021,96.6971,263.421,3.7798e-05,3.14e-06,0.0,0 STARLINK-4121,1 53002U 22076S   23289.58811566  .00000314  00000-0  37798-4 0  9997,2 53002  53.2178  62.6021 0001656  96.6971 263.4210 15.08845348 70732,6917.864,95.437,540.875,538.583,0.0
53002.0,STARLINK-4121,PAYLOAD,2023-10-16 15:42:16,15.08845693,0.0001632,53.2182,62.3055,94.5362,265.5817,3.2583e-05,2.31e-06,0.0,0 STARLINK-4121,1 53002U 22076S   23289.65435558  .00000231  00000-0  32583-4 0  9993,2 53002  53.2182  62.3055 0001632  94.5362 265.5817 15.08845693 71219,6917.863,95.437,540.857,538.599,0.0
53002.0,STARLINK-4121,PAYLOAD,2023-10-17 12:22:17,15.08836239,0.0001751,53.2187,58.4404,99.7577,260.3613,0.00012776,1.746e-05,0.0,0 STARLINK-4121,1 53002U 22076S   23290.51548195  .00001746  00000-0  12776-3 0  9995,2 53002  53.2187  58.4404 0001751  99.7577 260.3613 15.08836239 71342,6917.892,95.438,540.968,538.546,0.0
53002.0,STARLINK-4121,PAYLOAD,2023-10-18 15:23:50,15.08840926,0.0001769,53.2199,53.3903,108.4991,251.6193,0.00013038,1.788e-05,0.0,0 STARLINK-4121,1 53002U 22076S   23291.64156149  .00001788  00000-0  13038-3 0  9992,2 53002  53.2199  53.3903 0001769 108.4991 251.6193 15.08840926 71513,6917.878,95.437,540.966,538.519,0.0
53002.0,STARLINK-4121,PAYLOAD,2023-10-19 00:56:09,15.08851265,0.00014,53.2192,51.6028,88.8459,271.2693,4.47e-05,4.24e-06,0.0,0 STARLINK-4121,1 53002U 22076S   23292.03899560  .00000424  00000-0  44700-4 0  9994,2 53002  53.2192  51.6028 0001400  88.8459 271.2693 15.08851265 71574,6917.846,95.437,540.679,538.742,0.0
53002.0,STARLINK-4121,PAYLOAD,2023-10-19 12:03:51,15.08845079,0.0001728,53.2215,49.5225,99.4884,260.6303,0.0001285,1.758e-05,0.0,0 STARLINK-4121,1 53002U 22076S   23292.50267876  .00001758  00000-0  12850-3 0  9996,2 53002  53.2215  49.5225 0001728  99.4884 260.6303 15.08845079 71642,6917.865,95.437,540.925,538.534,0.0
53002.0,STARLINK-4121,PAYLOAD,2023-10-20 11:54:39,15.08832956,0.000144,53.2212,45.0619,92.565,267.5507,6.7487e-06,-1.81e-06,0.0,0 STARLINK-4121,1 53002U 22076S   23293.49629006 -.00000181  00000-0  67487-5 0  9990,2 53002  53.2212  45.0619 0001440  92.5650 267.5507 15.08832956 71791,6917.902,95.438,540.763,538.771,0.0
53002.0,STARLINK-4121,PAYLOAD,2023-10-21 13:20:48,15.08845259,0.0001332,53.2188,40.3018,90.2034,269.911,0.00015754,2.221e-05,0.0,0 STARLINK-4121,1 53002U 22076S   23294.55611995  .00002221  00000-0  15754-3 0  9990,2 53002  53.2188  40.3018 0001332  90.2034 269.9110 15.08845259 71959,6917.864,95.437,540.651,538.808,0.0
53002.0,STARLINK-4121,PAYLOAD,2023-10-21 16:31:34,15.08856231,0.0001393,53.2194,39.7041,97.9461,262.1689,0.00015702,2.213e-05,0.0,0 STARLINK-4121,1 53002U 22076S   23294.68858984  .00002213  00000-0  15702-3 0  9999,2 53002  53.2194  39.7041 0001393  97.9461 262.1689 15.08856231 71979,6917.831,95.437,540.659,538.732,0.0
53002.0,STARLINK-4121,PAYLOAD,2023-10-22 00:28:30,15.08842335,0.0001517,53.2227,38.2219,85.5765,274.5401,0.00027098,4.028e-05,0.0,0 STARLINK-4121,1 53002U 22076S   23295.01979542  .00004028  00000-0  27098-3 0  9998,2 53002  53.2227  38.2219 0001517  85.5765 274.5401 15.08842335 72021,6917.873,95.437,540.788,538.689,0.0
53002.0,STARLINK-4121,PAYLOAD,2023-10-22 13:11:37,15.08821431,0.0001462,53.2192,35.8398,114.7514,245.363,-3.155e-06,-3.38e-06,0.0,0 STARLINK-4121,1 53002U 22076S   23295.54973497 -.00000338  00000-0 -31550-5 0  9991,2 53002  53.2192  35.8398 0001462 114.7514 245.3630 15.08821431 72102,6917.937,95.439,540.814,538.791,0.0
53002.0,STARLINK-4121,PAYLOAD,2023-10-23 00:19:19,15.08832978,0.0001387,53.2189,33.7596,103.8548,256.2599,-7.6547e-05,-1.506e-05,0.0,0 STARLINK-4121,1 53002U 22076S   23296.01341532 -.00001506  00000-0 -76547-4 0  9995,2 53002  53.2189  33.7596 0001387 103.8548 256.2599 15.08832978 72177,6917.902,95.438,540.726,538.807,0.0
53002.0,STARLINK-4121,PAYLOAD,2023-10-23 13:02:23,15.08838162,0.0001322,53.2179,31.3811,96.7315,263.3828,-1.0697e-05,-4.58e-06,0.0,0 STARLINK-4121,1 53002U 22076S   23296.54332820 -.00000458  00000-0 -10697-4 0  9992,2 53002  53.2179  31.3811 0001322  96.7315 263.3828 15.08838162 72255,6917.886,95.438,540.666,538.836,0.0
53002.0,STARLINK-4121,PAYLOAD,2023-10-24 12:53:10,15.08847349,0.0001379,53.2179,26.9212,86.9517,273.1633,0.00016062,2.27e-05,0.0,0 STARLINK-4121,1 53002U 22076S   23297.53692808  .00002270  00000-0  16062-3 0  9990,2 53002  53.2179  26.9212 0001379  86.9517 273.1633 15.08847349 71931,6917.858,95.437,540.677,538.769,0.0
53002.0,STARLINK-4121,PAYLOAD,2023-10-25 11:08:34,15.08844751,0.0001556,53.2188,22.759,102.9386,257.178,0.0001997,2.892e-05,0.0,0 STARLINK-4121,1 53002U 22076S   23298.46429072  .00002892  00000-0  19970-3 0  9995,2 53002  53.2188  22.7590 0001556 102.9386 257.1780 15.08844751 72541,6917.866,95.437,540.807,538.654,0.0
